start=new Date('2023-02-26T00:00:00.000Z').valueOf();
sats=[{"TLE_LINE1":"1 46121U 20057E   23056.77520747  .00030574  00000-0  20621-2 0  9995","EPOCH":"2023-02-25T18:36:17.925408","COUNTRY_CODE":"US","FILE":"3839003","CLASSIFICATION_TYPE":"U","CENTER_NAME":"EARTH","OBJECT_ID":"2020-057E","RCS_SIZE":"LARGE","GP_ID":"226909596","LAUNCH_DATE":"2020-08-18","TLE_LINE2":"2 46121  53.0526 230.2397 0001216  75.3407 284.7717 15.06408014139355","PERIAPSIS":"546.347","REF_FRAME":"TEME","MEAN_MOTION_DOT":"0.00030574","MEAN_MOTION":"15.06408014","NORAD_CAT_ID":"46121","SEMIMAJOR_AXIS":"6925.324","ELEMENT_SET_NO":"999","TIME_SYSTEM":"UTC","DECAY_DATE":null,"MEAN_ELEMENT_THEORY":"SGP4","REV_AT_EPOCH":"13935","INCLINATION":"53.0526","PERIOD":"95.592","MEAN_ANOMALY":"284.7717","OBJECT_NAME":"STARLINK-1602","ARG_OF_PERICENTER":"75.3407","MEAN_MOTION_DDOT":"0.0000000000000","SITE":"AFETR","ECCENTRICITY":"0.00012160","EPHEMERIS_TYPE":"0","RA_OF_ASC_NODE":"230.2397","OBJECT_TYPE":"PAYLOAD","BSTAR":"0.00206210000000","APOAPSIS":"548.031"},{"RCS_SIZE":"LARGE","LAUNCH_DATE":"2020-08-18","GP_ID":"226910343","CENTER_NAME":"EARTH","OBJECT_ID":"2020-057F","REF_FRAME":"TEME","PERIAPSIS":"546.196","TLE_LINE2":"2 46122  53.0551 209.9005 0001359  80.3556 279.7587 15.06424825140902","COUNTRY_CODE":"US","EPOCH":"2023-02-25T20:25:04.376640","TLE_LINE1":"1 46122U 20057F   23056.85074510  .00008043  00000-0  55784-3 0  9992","FILE":"3839003","CLASSIFICATION_TYPE":"U","ECCENTRICITY":"0.00013590","EPHEMERIS_TYPE":"0","BSTAR":"0.00055784000000","OBJECT_TYPE":"PAYLOAD","RA_OF_ASC_NODE":"209.9005","OBJECT_NAME":"STARLINK-1604","SITE":"AFETR","MEAN_MOTION_DDOT":"0.0000000000000","ARG_OF_PERICENTER":"80.3556","APOAPSIS":"548.079","TIME_SYSTEM":"UTC","DECAY_DATE":null,"MEAN_ELEMENT_THEORY":"SGP4","MEAN_MOTION":"15.06424825","MEAN_MOTION_DOT":"0.00008043","ELEMENT_SET_NO":"999","NORAD_CAT_ID":"46122","SEMIMAJOR_AXIS":"6925.272","PERIOD":"95.591","MEAN_ANOMALY":"279.7587","REV_AT_EPOCH":"14090","INCLINATION":"53.0551"},{"OBJECT_NAME":"STARLINK-1605","MEAN_MOTION_DDOT":"0.0000000000000","SITE":"AFETR","ARG_OF_PERICENTER":"82.4425","EPHEMERIS_TYPE":"0","ECCENTRICITY":"0.00013040","BSTAR":"0.00091583000000","RA_OF_ASC_NODE":"210.2636","OBJECT_TYPE":"PAYLOAD","APOAPSIS":"548.042","MEAN_MOTION":"15.06424379","MEAN_MOTION_DOT":"0.00013395","ELEMENT_SET_NO":"999","NORAD_CAT_ID":"46123","SEMIMAJOR_AXIS":"6925.274","DECAY_DATE":null,"TIME_SYSTEM":"UTC","MEAN_ELEMENT_THEORY":"SGP4","REV_AT_EPOCH":"14091","INCLINATION":"53.0516","PERIOD":"95.591","MEAN_ANOMALY":"277.6712","CENTER_NAME":"EARTH","OBJECT_ID":"2020-057G","RCS_SIZE":"LARGE","LAUNCH_DATE":"2020-08-18","GP_ID":"226911091","TLE_LINE2":"2 46123  53.0516 210.2636 0001304  82.4425 277.6712 15.06424379140919","REF_FRAME":"TEME","PERIAPSIS":"546.236","TLE_LINE1":"1 46123U 20057G   23056.76965706  .00013395  00000-0  91583-3 0  9992","COUNTRY_CODE":"US","EPOCH":"2023-02-25T18:28:18.369984","CLASSIFICATION_TYPE":"U","FILE":"3839003"},{"BSTAR":"0.00115260000000","OBJECT_TYPE":"PAYLOAD","RA_OF_ASC_NODE":"210.5287","EPHEMERIS_TYPE":"0","ECCENTRICITY":"0.00012120","MEAN_MOTION_DDOT":"0.0000000000000","SITE":"AFETR","ARG_OF_PERICENTER":"68.0228","OBJECT_NAME":"STARLINK-1614","APOAPSIS":"547.959","MEAN_ELEMENT_THEORY":"SGP4","TIME_SYSTEM":"UTC","DECAY_DATE":null,"ELEMENT_SET_NO":"999","NORAD_CAT_ID":"46124","SEMIMAJOR_AXIS":"6925.255","MEAN_MOTION":"15.06430535","MEAN_MOTION_DOT":"0.00016942","MEAN_ANOMALY":"292.0889","PERIOD":"95.590","INCLINATION":"53.0531","REV_AT_EPOCH":"13963","LAUNCH_DATE":"2020-08-18","GP_ID":"226909847","RCS_SIZE":"LARGE","OBJECT_ID":"2020-057H","CENTER_NAME":"EARTH","REF_FRAME":"TEME","PERIAPSIS":"546.281","TLE_LINE2":"2 46124  53.0531 210.5287 0001212  68.0228 292.0889 15.06430535139635","COUNTRY_CODE":"US","EPOCH":"2023-02-25T17:03:23.175360","TLE_LINE1":"1 46124U 20057H   23056.71068490  .00016942  00000-0  11526-2 0  9991","CLASSIFICATION_TYPE":"U","FILE":"3839003"},{"ELEMENT_SET_NO":"999","NORAD_CAT_ID":"46125","SEMIMAJOR_AXIS":"6925.315","MEAN_MOTION":"15.06410929","MEAN_MOTION_DOT":"0.00008903","MEAN_ELEMENT_THEORY":"SGP4","TIME_SYSTEM":"UTC","DECAY_DATE":null,"INCLINATION":"53.0528","REV_AT_EPOCH":"14034","MEAN_ANOMALY":"282.6742","PERIOD":"95.591","MEAN_MOTION_DDOT":"0.0000000000000","SITE":"AFETR","ARG_OF_PERICENTER":"77.4368","OBJECT_NAME":"STARLINK-1618","BSTAR":"0.00061561000000","OBJECT_TYPE":"PAYLOAD","RA_OF_ASC_NODE":"250.0115","EPHEMERIS_TYPE":"0","ECCENTRICITY":"0.00010850","APOAPSIS":"547.931","TLE_LINE1":"1 46125U 20057J   23056.82495518  .00008903  00000-0  61561-3 0  9992","COUNTRY_CODE":"US","EPOCH":"2023-02-25T19:47:56.127552","FILE":"3839003","CLASSIFICATION_TYPE":"U","OBJECT_ID":"2020-057J","CENTER_NAME":"EARTH","LAUNCH_DATE":"2020-08-18","GP_ID":"226910095","RCS_SIZE":"LARGE","TLE_LINE2":"2 46125  53.0528 250.0115 0001085  77.4368 282.6742 15.06410929140346","REF_FRAME":"TEME","PERIAPSIS":"546.429"},{"INCLINATION":"53.0510","REV_AT_EPOCH":"13908","MEAN_ANOMALY":"274.7388","PERIOD":"95.591","ELEMENT_SET_NO":"999","NORAD_CAT_ID":"46126","SEMIMAJOR_AXIS":"6925.306","MEAN_MOTION":"15.06413751","MEAN_MOTION_DOT":"0.00007229","MEAN_ELEMENT_THEORY":"SGP4","DECAY_DATE":null,"TIME_SYSTEM":"UTC","APOAPSIS":"548.020","SITE":"AFETR","MEAN_MOTION_DDOT":"0.0000000000000","ARG_OF_PERICENTER":"85.3741","OBJECT_NAME":"STARLINK-1619","BSTAR":"0.00050354000000","OBJECT_TYPE":"PAYLOAD","RA_OF_ASC_NODE":"250.1333","ECCENTRICITY":"0.00012250","EPHEMERIS_TYPE":"0","FILE":"3839003","CLASSIFICATION_TYPE":"U","TLE_LINE1":"1 46126U 20057K   23056.79915312  .00007229  00000-0  50354-3 0  9996","COUNTRY_CODE":"US","EPOCH":"2023-02-25T19:10:46.829568","TLE_LINE2":"2 46126  53.0510 250.1333 0001225  85.3741 274.7388 15.06413751139083","REF_FRAME":"TEME","PERIAPSIS":"546.323","OBJECT_ID":"2020-057K","CENTER_NAME":"EARTH","LAUNCH_DATE":"2020-08-18","GP_ID":"226910844","RCS_SIZE":"LARGE"},{"APOAPSIS":"547.923","ARG_OF_PERICENTER":"86.5913","MEAN_MOTION_DDOT":"0.0000000000000","SITE":"AFETR","OBJECT_NAME":"STARLINK-1621","RA_OF_ASC_NODE":"230.1730","OBJECT_TYPE":"PAYLOAD","BSTAR":"0.00031007000000","ECCENTRICITY":"0.00010330","EPHEMERIS_TYPE":"0","INCLINATION":"53.0522","REV_AT_EPOCH":"13935","MEAN_ANOMALY":"273.5194","PERIOD":"95.592","NORAD_CAT_ID":"46127","SEMIMAJOR_AXIS":"6925.343","ELEMENT_SET_NO":"999","MEAN_MOTION_DOT":"0.00004340","MEAN_MOTION":"15.06401918","MEAN_ELEMENT_THEORY":"SGP4","TIME_SYSTEM":"UTC","DECAY_DATE":null,"TLE_LINE2":"2 46127  53.0522 230.1730 0001033  86.5913 273.5194 15.06401918139351","PERIAPSIS":"546.492","REF_FRAME":"TEME","OBJECT_ID":"2020-057L","CENTER_NAME":"EARTH","GP_ID":"226910591","LAUNCH_DATE":"2020-08-18","RCS_SIZE":"LARGE","CLASSIFICATION_TYPE":"U","FILE":"3839003","TLE_LINE1":"1 46127U 20057L   23056.78993243  .00004340  00000-0  31007-3 0  9990","EPOCH":"2023-02-25T18:57:30.161952","COUNTRY_CODE":"US"},{"MEAN_ELEMENT_THEORY":"SGP4","TIME_SYSTEM":"UTC","DECAY_DATE":null,"ELEMENT_SET_NO":"999","NORAD_CAT_ID":"46128","SEMIMAJOR_AXIS":"6925.275","MEAN_MOTION":"15.06424154","MEAN_MOTION_DOT":"0.00015089","MEAN_ANOMALY":"282.2561","PERIOD":"95.591","INCLINATION":"53.0535","REV_AT_EPOCH":"13962","BSTAR":"0.00102900000000","RA_OF_ASC_NODE":"210.6456","OBJECT_TYPE":"PAYLOAD","ECCENTRICITY":"0.00010940","EPHEMERIS_TYPE":"0","SITE":"AFETR","MEAN_MOTION_DDOT":"0.0000000000000","ARG_OF_PERICENTER":"77.8550","OBJECT_NAME":"STARLINK-1622","APOAPSIS":"547.897","COUNTRY_CODE":"US","EPOCH":"2023-02-25T16:26:14.455392","TLE_LINE1":"1 46128U 20057M   23056.68488953  .00015089  00000-0  10290-2 0  9999","CLASSIFICATION_TYPE":"U","FILE":"3839003","LAUNCH_DATE":"2020-08-18","GP_ID":"226909347","RCS_SIZE":"LARGE","OBJECT_ID":"2020-057M","CENTER_NAME":"EARTH","REF_FRAME":"TEME","PERIAPSIS":"546.382","TLE_LINE2":"2 46128  53.0535 210.6456 0001094  77.8550 282.2561 15.06424154139623"},{"TLE_LINE2":"2 46129  53.0535 210.4628 0000949  93.9909 266.1188 15.06427984139639","PERIAPSIS":"546.471","REF_FRAME":"TEME","OBJECT_ID":"2020-057N","CENTER_NAME":"EARTH","GP_ID":"226909597","LAUNCH_DATE":"2020-08-18","RCS_SIZE":"LARGE","CLASSIFICATION_TYPE":"U","FILE":"3839003","TLE_LINE1":"1 46129U 20057N   23056.72542543  .00010662  00000-0  73301-3 0  9996","EPOCH":"2023-02-25T17:24:36.757152","COUNTRY_CODE":"US","APOAPSIS":"547.785","ARG_OF_PERICENTER":"93.9909","SITE":"AFETR","MEAN_MOTION_DDOT":"0.0000000000000","OBJECT_NAME":"STARLINK-1623","RA_OF_ASC_NODE":"210.4628","OBJECT_TYPE":"PAYLOAD","BSTAR":"0.00073301000000","EPHEMERIS_TYPE":"0","ECCENTRICITY":"0.00009490","INCLINATION":"53.0535","REV_AT_EPOCH":"13963","MEAN_ANOMALY":"266.1188","PERIOD":"95.590","SEMIMAJOR_AXIS":"6925.263","NORAD_CAT_ID":"46129","ELEMENT_SET_NO":"999","MEAN_MOTION_DOT":"0.00010662","MEAN_MOTION":"15.06427984","MEAN_ELEMENT_THEORY":"SGP4","TIME_SYSTEM":"UTC","DECAY_DATE":null},{"PERIAPSIS":"546.332","REF_FRAME":"TEME","TLE_LINE2":"2 46130  53.0536 209.7167 0001096  72.4873 287.6236 15.06440112140909","RCS_SIZE":"LARGE","GP_ID":"226910344","LAUNCH_DATE":"2020-08-18","CENTER_NAME":"EARTH","OBJECT_ID":"2020-057P","CLASSIFICATION_TYPE":"U","FILE":"3839003","EPOCH":"2023-02-25T21:23:27.462912","COUNTRY_CODE":"US","TLE_LINE1":"1 46130U 20057P   23056.89129008  .00022244  00000-0  15059-2 0  9997","APOAPSIS":"547.850","ECCENTRICITY":"0.00010960","EPHEMERIS_TYPE":"0","RA_OF_ASC_NODE":"209.7167","OBJECT_TYPE":"PAYLOAD","BSTAR":"0.00150590000000","OBJECT_NAME":"STARLINK-1624","ARG_OF_PERICENTER":"72.4873","MEAN_MOTION_DDOT":"0.0000000000000","SITE":"AFETR","PERIOD":"95.590","MEAN_ANOMALY":"287.6236","REV_AT_EPOCH":"14090","INCLINATION":"53.0536","DECAY_DATE":null,"TIME_SYSTEM":"UTC","MEAN_ELEMENT_THEORY":"SGP4","MEAN_MOTION_DOT":"0.00022244","MEAN_MOTION":"15.06440112","NORAD_CAT_ID":"46130","SEMIMAJOR_AXIS":"6925.226","ELEMENT_SET_NO":"999"}];
